KUIPER-00035            
1 63748U 25088AA  25200.25001157 -.00020345  00000+0 -10980-2 0  9996
2 63748  51.8789  70.0975 0003967  62.2442  92.1369 15.13841469 12882
KUIPER-00037            
1 63749U 25088AB  25200.25001157 -.00024373  00000+0 -12739-2 0  9996
2 63749  51.8836  69.5564 0003093 346.7439  14.3309 15.15082877 13680
KUIPER-00038            
1 63750U 25088AC  25200.05576331  .00013656  00000+0  37434-3 0  9997
2 63750  51.8700  66.1456 0004805  50.2142 309.9268 15.37576907 12711
KUIPER-00039            
1 64500U 25134A   25200.17451988  .00016775  00000+0  49944-3 0  9990
2 64500  51.8667 207.0957 0007429 205.2943 154.7680 15.34798255  4731
KUIPER-00040            
1 64501U 25134B   25200.58335648 -.00310237  00000+0 -10478-1 0  9990
2 64501  51.8656 205.3344 0011042 222.7547 139.2803 15.31362749  4794
KUIPER-00041            
1 64502U 25134C   25200.58335648 -.00817191  00000+0 -31422-1 0  9994
2 64502  51.8698 205.3288 0008477 216.6152 131.8402 15.28419857  4792
KUIPER-00042            
1 64503U 25134D   25200.30980948  .00010425  00000+0  31752-3 0  9995
2 64503  51.8641 206.4972 0008636 207.2235 152.8299 15.34524966  4756
KUIPER-00043            
1 64504U 25134E   25200.43624843  .00021891  00000+0  64941-3 0  9994
2 64504  51.8684 205.8533 0007942 202.1456 157.9187 15.34721343  5153
