<?xml version="1.0" encoding="UTF-8"?>
<ndm xmlns:xsi="http://www.w3.org/2001/XMLSchema-instance" xsi:noNamespaceSchemaLocation="https://sanaregistry.org/r/ndmxml_unqualified/ndmxml-2.0.0-master-2.0.xsd">
<omm id="CCSDS_OMM_VERS" version="2.0">
<header><CREATION_DATE/><ORIGINATOR/></header><body><segment><metadata><OBJECT_NAME>KUIPER-00035</OBJECT_NAME><OBJECT_ID>2025-088AA</OBJECT_ID><CENTER_NAME>EARTH</CENTER_NAME><REF_FRAME>TEME</REF_FRAME><TIME_SYSTEM>UTC</TIME_SYSTEM><MEAN_ELEMENT_THEORY>SGP4</MEAN_ELEMENT_THEORY></metadata><data><meanElements><EPOCH>2025-07-19T06:00:00.999648</EPOCH><MEAN_MOTION>15.13841469</MEAN_MOTION><ECCENTRICITY>.0003967</ECCENTRICITY><INCLINATION>51.8789</INCLINATION><RA_OF_ASC_NODE>70.0975</RA_OF_ASC_NODE><ARG_OF_PERICENTER>62.2442</ARG_OF_PERICENTER><MEAN_ANOMALY>92.1369</MEAN_ANOMALY></meanElements><tleParameters><EPHEMERIS_TYPE>0</EPHEMERIS_TYPE><CLASSIFICATION_TYPE>U</CLASSIFICATION_TYPE><NORAD_CAT_ID>63748</NORAD_CAT_ID><ELEMENT_SET_NO>999</ELEMENT_SET_NO><REV_AT_EPOCH>1288</REV_AT_EPOCH><BSTAR>-.1098E-2</BSTAR><MEAN_MOTION_DOT>-.20345E-3</MEAN_MOTION_DOT><MEAN_MOTION_DDOT>0</MEAN_MOTION_DDOT></tleParameters></data></segment></body></omm>
<omm id="CCSDS_OMM_VERS" version="2.0">
<header><CREATION_DATE/><ORIGINATOR/></header><body><segment><metadata><OBJECT_NAME>KUIPER-00037</OBJECT_NAME><OBJECT_ID>2025-088AB</OBJECT_ID><CENTER_NAME>EARTH</CENTER_NAME><REF_FRAME>TEME</REF_FRAME><TIME_SYSTEM>UTC</TIME_SYSTEM><MEAN_ELEMENT_THEORY>SGP4</MEAN_ELEMENT_THEORY></metadata><data><meanElements><EPOCH>2025-07-19T06:00:00.999648</EPOCH><MEAN_MOTION>15.15082877</MEAN_MOTION><ECCENTRICITY>.0003093</ECCENTRICITY><INCLINATION>51.8836</INCLINATION><RA_OF_ASC_NODE>69.5564</RA_OF_ASC_NODE><ARG_OF_PERICENTER>346.7439</ARG_OF_PERICENTER><MEAN_ANOMALY>14.3309</MEAN_ANOMALY></meanElements><tleParameters><EPHEMERIS_TYPE>0</EPHEMERIS_TYPE><CLASSIFICATION_TYPE>U</CLASSIFICATION_TYPE><NORAD_CAT_ID>63749</NORAD_CAT_ID><ELEMENT_SET_NO>999</ELEMENT_SET_NO><REV_AT_EPOCH>1368</REV_AT_EPOCH><BSTAR>-.12739E-2</BSTAR><MEAN_MOTION_DOT>-.24373E-3</MEAN_MOTION_DOT><MEAN_MOTION_DDOT>0</MEAN_MOTION_DDOT></tleParameters></data></segment></body></omm>
<omm id="CCSDS_OMM_VERS" version="2.0">
<header><CREATION_DATE/><ORIGINATOR/></header><body><segment><metadata><OBJECT_NAME>KUIPER-00038</OBJECT_NAME><OBJECT_ID>2025-088AC</OBJECT_ID><CENTER_NAME>EARTH</CENTER_NAME><REF_FRAME>TEME</REF_FRAME><TIME_SYSTEM>UTC</TIME_SYSTEM><MEAN_ELEMENT_THEORY>SGP4</MEAN_ELEMENT_THEORY></metadata><data><meanElements><EPOCH>2025-07-19T01:20:17.949984</EPOCH><MEAN_MOTION>15.37576907</MEAN_MOTION><ECCENTRICITY>.0004805</ECCENTRICITY><INCLINATION>51.8700</INCLINATION><RA_OF_ASC_NODE>66.1456</RA_OF_ASC_NODE><ARG_OF_PERICENTER>50.2142</ARG_OF_PERICENTER><MEAN_ANOMALY>309.9268</MEAN_ANOMALY></meanElements><tleParameters><EPHEMERIS_TYPE>0</EPHEMERIS_TYPE><CLASSIFICATION_TYPE>U</CLASSIFICATION_TYPE><NORAD_CAT_ID>63750</NORAD_CAT_ID><ELEMENT_SET_NO>999</ELEMENT_SET_NO><REV_AT_EPOCH>1271</REV_AT_EPOCH><BSTAR>.37434E-3</BSTAR><MEAN_MOTION_DOT>.13656E-3</MEAN_MOTION_DOT><MEAN_MOTION_DDOT>0</MEAN_MOTION_DDOT></tleParameters></data></segment></body></omm>
<omm id="CCSDS_OMM_VERS" version="2.0">
<header><CREATION_DATE/><ORIGINATOR/></header><body><segment><metadata><OBJECT_NAME>KUIPER-00039</OBJECT_NAME><OBJECT_ID>2025-134A</OBJECT_ID><CENTER_NAME>EARTH</CENTER_NAME><REF_FRAME>TEME</REF_FRAME><TIME_SYSTEM>UTC</TIME_SYSTEM><MEAN_ELEMENT_THEORY>SGP4</MEAN_ELEMENT_THEORY></metadata><data><meanElements><EPOCH>2025-07-19T04:11:18.517632</EPOCH><MEAN_MOTION>15.34798255</MEAN_MOTION><ECCENTRICITY>.0007429</ECCENTRICITY><INCLINATION>51.8667</INCLINATION><RA_OF_ASC_NODE>207.0957</RA_OF_ASC_NODE><ARG_OF_PERICENTER>205.2943</ARG_OF_PERICENTER><MEAN_ANOMALY>154.7680</MEAN_ANOMALY></meanElements><tleParameters><EPHEMERIS_TYPE>0</EPHEMERIS_TYPE><CLASSIFICATION_TYPE>U</CLASSIFICATION_TYPE><NORAD_CAT_ID>64500</NORAD_CAT_ID><ELEMENT_SET_NO>999</ELEMENT_SET_NO><REV_AT_EPOCH>473</REV_AT_EPOCH><BSTAR>.49944E-3</BSTAR><MEAN_MOTION_DOT>.16775E-3</MEAN_MOTION_DOT><MEAN_MOTION_DDOT>0</MEAN_MOTION_DDOT></tleParameters></data></segment></body></omm>
<omm id="CCSDS_OMM_VERS" version="2.0">
<header><CREATION_DATE/><ORIGINATOR/></header><body><segment><metadata><OBJECT_NAME>KUIPER-00040</OBJECT_NAME><OBJECT_ID>2025-134B</OBJECT_ID><CENTER_NAME>EARTH</CENTER_NAME><REF_FRAME>TEME</REF_FRAME><TIME_SYSTEM>UTC</TIME_SYSTEM><MEAN_ELEMENT_THEORY>SGP4</MEAN_ELEMENT_THEORY></metadata><data><meanElements><EPOCH>2025-07-19T14:00:01.999872</EPOCH><MEAN_MOTION>15.31362749</MEAN_MOTION><ECCENTRICITY>.0011042</ECCENTRICITY><INCLINATION>51.8656</INCLINATION><RA_OF_ASC_NODE>205.3344</RA_OF_ASC_NODE><ARG_OF_PERICENTER>222.7547</ARG_OF_PERICENTER><MEAN_ANOMALY>139.2803</MEAN_ANOMALY></meanElements><tleParameters><EPHEMERIS_TYPE>0</EPHEMERIS_TYPE><CLASSIFICATION_TYPE>U</CLASSIFICATION_TYPE><NORAD_CAT_ID>64501</NORAD_CAT_ID><ELEMENT_SET_NO>999</ELEMENT_SET_NO><REV_AT_EPOCH>479</REV_AT_EPOCH><BSTAR>-.10478E-1</BSTAR><MEAN_MOTION_DOT>-.310237E-2</MEAN_MOTION_DOT><MEAN_MOTION_DDOT>0</MEAN_MOTION_DDOT></tleParameters></data></segment></body></omm>
<omm id="CCSDS_OMM_VERS" version="2.0">
<header><CREATION_DATE/><ORIGINATOR/></header><body><segment><metadata><OBJECT_NAME>KUIPER-00041</OBJECT_NAME><OBJECT_ID>2025-134C</OBJECT_ID><CENTER_NAME>EARTH</CENTER_NAME><REF_FRAME>TEME</REF_FRAME><TIME_SYSTEM>UTC</TIME_SYSTEM><MEAN_ELEMENT_THEORY>SGP4</MEAN_ELEMENT_THEORY></metadata><data><meanElements><EPOCH>2025-07-19T14:00:01.999872</EPOCH><MEAN_MOTION>15.28419857</MEAN_MOTION><ECCENTRICITY>.0008477</ECCENTRICITY><INCLINATION>51.8698</INCLINATION><RA_OF_ASC_NODE>205.3288</RA_OF_ASC_NODE><ARG_OF_PERICENTER>216.6152</ARG_OF_PERICENTER><MEAN_ANOMALY>131.8402</MEAN_ANOMALY></meanElements><tleParameters><EPHEMERIS_TYPE>0</EPHEMERIS_TYPE><CLASSIFICATION_TYPE>U</CLASSIFICATION_TYPE><NORAD_CAT_ID>64502</NORAD_CAT_ID><ELEMENT_SET_NO>999</ELEMENT_SET_NO><REV_AT_EPOCH>479</REV_AT_EPOCH><BSTAR>-.31422E-1</BSTAR><MEAN_MOTION_DOT>-.817191E-2</MEAN_MOTION_DOT><MEAN_MOTION_DDOT>0</MEAN_MOTION_DDOT></tleParameters></data></segment></body></omm>
<omm id="CCSDS_OMM_VERS" version="2.0">
<header><CREATION_DATE/><ORIGINATOR/></header><body><segment><metadata><OBJECT_NAME>KUIPER-00042</OBJECT_NAME><OBJECT_ID>2025-134D</OBJECT_ID><CENTER_NAME>EARTH</CENTER_NAME><REF_FRAME>TEME</REF_FRAME><TIME_SYSTEM>UTC</TIME_SYSTEM><MEAN_ELEMENT_THEORY>SGP4</MEAN_ELEMENT_THEORY></metadata><data><meanElements><EPOCH>2025-07-19T07:26:07.539072</EPOCH><MEAN_MOTION>15.34524966</MEAN_MOTION><ECCENTRICITY>.0008636</ECCENTRICITY><INCLINATION>51.8641</INCLINATION><RA_OF_ASC_NODE>206.4972</RA_OF_ASC_NODE><ARG_OF_PERICENTER>207.2235</ARG_OF_PERICENTER><MEAN_ANOMALY>152.8299</MEAN_ANOMALY></meanElements><tleParameters><EPHEMERIS_TYPE>0</EPHEMERIS_TYPE><CLASSIFICATION_TYPE>U</CLASSIFICATION_TYPE><NORAD_CAT_ID>64503</NORAD_CAT_ID><ELEMENT_SET_NO>999</ELEMENT_SET_NO><REV_AT_EPOCH>475</REV_AT_EPOCH><BSTAR>.31752E-3</BSTAR><MEAN_MOTION_DOT>.10425E-3</MEAN_MOTION_DOT><MEAN_MOTION_DDOT>0</MEAN_MOTION_DDOT></tleParameters></data></segment></body></omm>
<omm id="CCSDS_OMM_VERS" version="2.0">
<header><CREATION_DATE/><ORIGINATOR/></header><body><segment><metadata><OBJECT_NAME>KUIPER-00043</OBJECT_NAME><OBJECT_ID>2025-134E</OBJECT_ID><CENTER_NAME>EARTH</CENTER_NAME><REF_FRAME>TEME</REF_FRAME><TIME_SYSTEM>UTC</TIME_SYSTEM><MEAN_ELEMENT_THEORY>SGP4</MEAN_ELEMENT_THEORY></metadata><data><meanElements><EPOCH>2025-07-19T10:28:11.864352</EPOCH><MEAN_MOTION>15.34721343</MEAN_MOTION><ECCENTRICITY>.0007942</ECCENTRICITY><INCLINATION>51.8684</INCLINATION><RA_OF_ASC_NODE>205.8533</RA_OF_ASC_NODE><ARG_OF_PERICENTER>202.1456</ARG_OF_PERICENTER><MEAN_ANOMALY>157.9187</MEAN_ANOMALY></meanElements><tleParameters><EPHEMERIS_TYPE>0</EPHEMERIS_TYPE><CLASSIFICATION_TYPE>U</CLASSIFICATION_TYPE><NORAD_CAT_ID>64504</NORAD_CAT_ID><ELEMENT_SET_NO>999</ELEMENT_SET_NO><REV_AT_EPOCH>515</REV_AT_EPOCH><BSTAR>.64941E-3</BSTAR><MEAN_MOTION_DOT>.21891E-3</MEAN_MOTION_DOT><MEAN_MOTION_DDOT>0</MEAN_MOTION_DDOT></tleParameters></data></segment></body></omm>

</ndm>
